{
  "type": "FeatureCollection",
  "features": [
    {
      "type": "Feature",
      "properties": {
        "norad_id": 36036,
        "name": "SMOS",
        "group": "resource",
        "lat": -0.9689785897242311,
        "lon": -17.50512565993606,
        "alt_km": 762.5258167763104,
        "timestamp": "2025-12-03T10:52:57.106543+00:00",
        "meta_object_name": "SMOS",
        "meta_object_id": "2009-059A",
        "meta_epoch": "2025-12-03T03:22:25.508064",
        "meta_mean_motion": 14.39788056,
        "meta_eccentricity": 0.0001037,
        "meta_inclination": 98.4384,
        "meta_ra_of_asc_node": 162.3306,
        "meta_arg_of_pericenter": 71.8529,
        "meta_mean_anomaly": 288.2772,
        "meta_ephemeris_type": 0,
        "meta_classification_type": "U",
        "meta_norad_cat_id": 36036,
        "meta_element_set_no": 999,
        "meta_rev_at_epoch": 84524,
        "meta_bstar": 0.00018847,
        "meta_mean_motion_dot": 5.47e-06,
        "meta_mean_motion_ddot": 0,
        "tle_line1": "1 36036U 09059A   25337.14057301  .00000547  00000+0  18847-3 0  9998",
        "tle_line2": "2 36036  98.4384 162.3306 0001037  71.8529 288.2772 14.39788056845240"
      },
      "geometry": {
        "type": "Point",
        "coordinates": [
          -17.50512565993606,
          -0.9689785897242311
        ]
      }
    },
    {
      "type": "Feature",
      "properties": {
        "norad_id": 36110,
        "name": "YAOGAN-7",
        "group": "resource",
        "lat": 1.767135415630215,
        "lon": 39.49278143096715,
        "alt_km": 651.0516125458716,
        "timestamp": "2025-12-03T10:52:57.106555+00:00",
        "meta_object_name": "YAOGAN-7",
        "meta_object_id": "2009-069A",
        "meta_epoch": "2025-12-03T03:34:36.715584",
        "meta_mean_motion": 14.77708301,
        "meta_eccentricity": 0.0023807,
        "meta_inclination": 98.0303,
        "meta_ra_of_asc_node": 218.94,
        "meta_arg_of_pericenter": 313.6632,
        "meta_mean_anomaly": 46.2605,
        "meta_ephemeris_type": 0,
        "meta_classification_type": "U",
        "meta_norad_cat_id": 36110,
        "meta_element_set_no": 999,
        "meta_rev_at_epoch": 86067,
        "meta_bstar": 0.00014607,
        "meta_mean_motion_dot": 9.98e-06,
        "meta_mean_motion_ddot": 0,
        "tle_line1": "1 36110U 09069A   25337.14903606  .00000998  00000+0  14607-3 0  9990",
        "tle_line2": "2 36110  98.0303 218.9400 0023807 313.6632  46.2605 14.77708301860672"
      },
      "geometry": {
        "type": "Point",
        "coordinates": [
          39.49278143096715,
          1.767135415630215
        ]
      }
    },
    {
      "type": "Feature",
      "properties": {
        "norad_id": 36605,
        "name": "TANDEM-X",
        "group": "resource",
        "lat": 57.71408715064159,
        "lon": 174.91257823787,
        "alt_km": 501.7880320807117,
        "timestamp": "2025-12-03T10:52:57.106565+00:00",
        "meta_object_name": "TANDEM-X",
        "meta_object_id": "2010-030A",
        "meta_epoch": "2025-12-02T15:22:47.718912",
        "meta_mean_motion": 15.19155178,
        "meta_eccentricity": 0.00017925,
        "meta_inclination": 97.4443,
        "meta_ra_of_asc_node": 342.1684,
        "meta_arg_of_pericenter": 94.9925,
        "meta_mean_anomaly": 265.1514,
        "meta_ephemeris_type": 0,
        "meta_classification_type": "U",
        "meta_norad_cat_id": 36605,
        "meta_element_set_no": 999,
        "meta_rev_at_epoch": 85680,
        "meta_bstar": 9.0053561e-05,
        "meta_mean_motion_dot": 1.825e-05,
        "meta_mean_motion_ddot": 0,
        "tle_line1": "1 36605U 10030A   25336.64083008  .00001825  00000+0  90054-4 0  9999",
        "tle_line2": "2 36605  97.4443 342.1684 0001792  94.9925 265.1514 15.19155178856802"
      },
      "geometry": {
        "type": "Point",
        "coordinates": [
          174.91257823787,
          57.71408715064159
        ]
      }
    },
    {
      "type": "Feature",
      "properties": {
        "norad_id": 36795,
        "name": "CARTOSAT-2B",
        "group": "resource",
        "lat": 69.34968322586606,
        "lon": 5.495426335709223,
        "alt_km": 619.0094692225784,
        "timestamp": "2025-12-03T10:52:57.106576+00:00",
        "meta_object_name": "CARTOSAT-2B",
        "meta_object_id": "2010-035A",
        "meta_epoch": "2025-12-03T04:04:04.297152",
        "meta_mean_motion": 14.78763894,
        "meta_eccentricity": 0.0012865,
        "meta_inclination": 97.7866,
        "meta_ra_of_asc_node": 26.5101,
        "meta_arg_of_pericenter": 105.6538,
        "meta_mean_anomaly": 254.6094,
        "meta_ephemeris_type": 0,
        "meta_classification_type": "U",
        "meta_norad_cat_id": 36795,
        "meta_element_set_no": 999,
        "meta_rev_at_epoch": 83088,
        "meta_bstar": 0.00015059,
        "meta_mean_motion_dot": 1.057e-05,
        "meta_mean_motion_ddot": 0,
        "tle_line1": "1 36795U 10035A   25337.16949418  .00001057  00000+0  15059-3 0  9996",
        "tle_line2": "2 36795  97.7866  26.5101 0012865 105.6538 254.6094 14.78763894830884"
      },
      "geometry": {
        "type": "Point",
        "coordinates": [
          5.495426335709223,
          69.34968322586606
        ]
      }
    },
    {
      "type": "Feature",
      "properties": {
        "norad_id": 36834,
        "name": "YAOGAN-10",
        "group": "resource",
        "lat": -42.5784098030877,
        "lon": 4.68816900209105,
        "alt_km": 622.2715296819906,
        "timestamp": "2025-12-03T10:52:57.106587+00:00",
        "meta_object_name": "YAOGAN-10",
        "meta_object_id": "2010-038A",
        "meta_epoch": "2025-12-03T05:00:07.225344",
        "meta_mean_motion": 14.84550207,
        "meta_eccentricity": 0.0001498,
        "meta_inclination": 97.915,
        "meta_ra_of_asc_node": 357.1006,
        "meta_arg_of_pericenter": 84.3815,
        "meta_mean_anomaly": 3.9502,
        "meta_ephemeris_type": 0,
        "meta_classification_type": "U",
        "meta_norad_cat_id": 36834,
        "meta_element_set_no": 999,
        "meta_rev_at_epoch": 82812,
        "meta_bstar": 0.00019045,
        "meta_mean_motion_dot": 1.553e-05,
        "meta_mean_motion_ddot": 0,
        "tle_line1": "1 36834U 10038A   25337.20841696  .00001553  00000+0  19045-3 0  9997",
        "tle_line2": "2 36834  97.9150 357.1006 0001498  84.3815   3.9502 14.84550207828126"
      },
      "geometry": {
        "type": "Point",
        "coordinates": [
          4.68816900209105,
          -42.5784098030877
        ]
      }
    },
    {
      "type": "Feature",
      "properties": {
        "norad_id": 37216,
        "name": "COSMO-SKYMED 4",
        "group": "resource",
        "lat": -38.653439188501274,
        "lon": 165.27763898188945,
        "alt_km": 629.5328274612348,
        "timestamp": "2025-12-03T10:52:57.106598+00:00",
        "meta_object_name": "COSMO-SKYMED 4",
        "meta_object_id": "2010-060A",
        "meta_epoch": "2025-12-03T04:34:39.150624",
        "meta_mean_motion": 14.82149254,
        "meta_eccentricity": 0.0001415,
        "meta_inclination": 97.8815,
        "meta_ra_of_asc_node": 158.6578,
        "meta_arg_of_pericenter": 82.9773,
        "meta_mean_anomaly": 277.1601,
        "meta_ephemeris_type": 0,
        "meta_classification_type": "U",
        "meta_norad_cat_id": 37216,
        "meta_element_set_no": 999,
        "meta_rev_at_epoch": 81553,
        "meta_bstar": 0.00011469,
        "meta_mean_motion_dot": 8.61e-06,
        "meta_mean_motion_ddot": 0,
        "tle_line1": "1 37216U 10060A   25337.19073091  .00000861  00000+0  11469-3 0  9994",
        "tle_line2": "2 37216  97.8815 158.6578 0001415  82.9773 277.1601 14.82149254815532"
      },
      "geometry": {
        "type": "Point",
        "coordinates": [
          165.27763898188945,
          -38.653439188501274
        ]
      }
    },
    {
      "type": "Feature",
      "properties": {
        "norad_id": 37387,
        "name": "RESOURCESAT-2",
        "group": "resource",
        "lat": 32.18756852926467,
        "lon": -133.36523060483054,
        "alt_km": 817.2682254179063,
        "timestamp": "2025-12-03T10:52:57.106610+00:00",
        "meta_object_name": "RESOURCESAT-2",
        "meta_object_id": "2011-015A",
        "meta_epoch": "2025-12-03T03:26:09.117312",
        "meta_mean_motion": 14.21590798,
        "meta_eccentricity": 0.0006792,
        "meta_inclination": 98.789,
        "meta_ra_of_asc_node": 40.7376,
        "meta_arg_of_pericenter": 67.222,
        "meta_mean_anomaly": 292.9674,
        "meta_ephemeris_type": 0,
        "meta_classification_type": "U",
        "meta_norad_cat_id": 37387,
        "meta_element_set_no": 999,
        "meta_rev_at_epoch": 75832,
        "meta_bstar": 0.00012184,
        "meta_mean_motion_dot": 2.23e-06,
        "meta_mean_motion_ddot": 0,
        "tle_line1": "1 37387U 11015A   25337.14316108  .00000223  00000+0  12184-3 0  9995",
        "tle_line2": "2 37387  98.7890  40.7376 0006792  67.2220 292.9674 14.21590798758321"
      },
      "geometry": {
        "type": "Point",
        "coordinates": [
          -133.36523060483054,
          32.18756852926467
        ]
      }
    }
  ]
}